ONEWEB-0142             
1 47288U 20100AG  23255.36527375  .00000281  00000+0  74475-3 0  9997
2 47288  87.8928 191.2142 0001917  71.5544 288.5793 13.12438712132344
ONEWEB-0143             
1 47289U 20100AH  23255.31974620 -.00000318  00000+0 -92049-3 0  9992
2 47289  87.9061 191.2115 0001964  78.4662 281.6687 13.12444616132316
ONEWEB-0144             
1 47290U 20100AJ  23255.36846027  .00000200  00000+0  52188-3 0  9996
2 47290  87.8991 191.2051 0002136  65.5933 294.5418 13.12443811132241
ONEWEB-0145             
1 47291U 20100AK  23255.33881970  .00000240  00000+0  63047-3 0  9990
2 47291  87.9060 191.2145 0001976  73.3046 286.8299 13.12445262132431
ONEWEB-0146             
1 47292U 20100AL  23255.33457390  .00000054  00000+0  11388-3 0  9990
2 47292  87.9071 191.2466 0001955  93.0122 267.1231 13.12445814132342
ONEWEB-0147             
1 47293U 20100AM  23255.37904323 -.00000187  00000+0 -55592-3 0  9992
2 47293  87.9060 191.1916 0002385  72.1957 287.9431 13.12441211132240
ONEWEB-0115             
1 48042U 21025A   23255.27933990  .00000267  00000+0  69547-3 0  9995
2 48042  87.9084 160.9588 0001936  80.5620 279.5728 13.13471740121154
ONEWEB-0152             
1 48043U 21025B   23255.29203496 -.00000049  00000+0 -16832-3 0  9998
2 48043  87.9087 160.9423 0001979  75.2416 284.8932 13.13467741121115
